[{"OBJECT_NAME":"STARLINK-30865","OBJECT_ID":"2023-170W","EPOCH":"2026-03-09T00:00:04.000320","MEAN_MOTION":15.26709308,"ECCENTRICITY":0.0001357,"INCLINATION":42.999,"RA_OF_ASC_NODE":186.7067,"ARG_OF_PERICENTER":243.4599,"MEAN_ANOMALY":281.8761,"EPHEMERIS_TYPE":0,"CLASSIFICATION_TYPE":"U","NORAD_CAT_ID":58226,"ELEMENT_SET_NO":999,"REV_AT_EPOCH":574,"BSTAR":0.0002482558,"MEAN_MOTION_DOT":6.399e-5,"MEAN_MOTION_DDOT":0},{"OBJECT_NAME":"NUSAT-45 (UZMASAT-1)","OBJECT_ID":"2025-009AH","EPOCH":"2026-03-09T03:44:32.024544","MEAN_MOTION":15.26632732,"ECCENTRICITY":0.00011721,"INCLINATION":97.3985,"RA_OF_ASC_NODE":150.3373,"ARG_OF_PERICENTER":1.4631,"MEAN_ANOMALY":358.6611,"EPHEMERIS_TYPE":0,"CLASSIFICATION_TYPE":"U","NORAD_CAT_ID":62640,"ELEMENT_SET_NO":999,"REV_AT_EPOCH":6363,"BSTAR":0.00048087023,"MEAN_MOTION_DOT":0.00012539,"MEAN_MOTION_DDOT":0}]
